FENGYUN 1C DEB          
1 35139U 99025DLT 17345.26568925  .00000182  00000-0  10866-3 0  9994
2 35139  98.8132  13.8762 0072475  66.3512 294.5249 14.17282975499631
